[{"OBJECT_NAME":"OBJECT D","OBJECT_ID":"2024-174D","EPOCH":"2026-03-10T00:15:10.483200","MEAN_MOTION":15.28039787,"ECCENTRICITY":0.00110644,"INCLINATION":97.4441,"RA_OF_ASC_NODE":80.4677,"ARG_OF_PERICENTER":212.9968,"MEAN_ANOMALY":147.0582,"EPHEMERIS_TYPE":0,"CLASSIFICATION_TYPE":"U","NORAD_CAT_ID":61241,"ELEMENT_SET_NO":999,"REV_AT_EPOCH":8076,"BSTAR":0.00036340099,"MEAN_MOTION_DOT":9.884e-5,"MEAN_MOTION_DDOT":0},{"OBJECT_NAME":"STARLINK-35126","OBJECT_ID":"2025-198M","EPOCH":"2026-03-09T22:01:42.553632","MEAN_MOTION":15.3019193,"ECCENTRICITY":0.00011011,"INCLINATION":53.1571,"RA_OF_ASC_NODE":270.0337,"ARG_OF_PERICENTER":94.083,"MEAN_ANOMALY":266.0296,"EPHEMERIS_TYPE":0,"CLASSIFICATION_TYPE":"U","NORAD_CAT_ID":65503,"ELEMENT_SET_NO":999,"REV_AT_EPOCH":2865,"BSTAR":0.0010687684,"MEAN_MOTION_DOT":0.00031421,"MEAN_MOTION_DDOT":0}]
